IRIDIUM 144             
1 43249U 18030A   23301.63434650  .00000340  00000+0  11425-3 0  9996
2 43249  86.3965 332.7133 0002274  97.3029 262.8425 14.34217124292177
IRIDIUM 149             
1 43250U 18030B   23301.84998017  .00000411  00000+0  13953-3 0  9990
2 43250  86.3961 332.6008 0002292 100.5701 259.5753 14.34214929292222
IRIDIUM 157             
1 43251U 18030C   23302.14809637  .00000385  00000+0  13043-3 0  9994
2 43251  86.3965 332.5080 0002215  87.5527 272.5922 14.34217840292241
IRIDIUM 140             
1 43252U 18030D   23301.81828127  .00000394  00000+0  13373-3 0  9999
2 43252  86.3966 332.6605 0002032 100.7570 259.3855 14.34218333292257
IRIDIUM 145             
1 43253U 18030E   23301.80559865  .00000434  00000+0  14784-3 0  9991
2 43253  86.3965 332.6403 0002445 100.9742 259.1729 14.34217730292184
IRIDIUM 146             
1 43254U 18030F   23301.78656559  .00000284  00000+0  94292-4 0  9993
2 43254  86.3966 332.6637 0002483  98.1472 262.0006 14.34217020292199
IRIDIUM 148             
1 43255U 18030G   23301.82462384  .00000440  00000+0  15014-3 0  9998
2 43255  86.3967 332.6766 0002538  94.4926 265.6559 14.34218707292238
IRIDIUM 142             
1 43256U 18030H   23302.14175205  .00000420  00000+0  14288-3 0  9998
2 43256  86.3963 332.4679 0002382  94.3007 265.8461 14.34219207292243
